[{"OBJECT_NAME":"ONEWEB-0412","OBJECT_ID":"2021-132W","EPOCH":"2026-03-09T16:56:58.609824","MEAN_MOTION":13.18686027,"ECCENTRICITY":0.00015108,"INCLINATION":87.9252,"RA_OF_ASC_NODE":355.2165,"ARG_OF_PERICENTER":84.9612,"MEAN_ANOMALY":275.1692,"EPHEMERIS_TYPE":0,"CLASSIFICATION_TYPE":"U","NORAD_CAT_ID":50489,"ELEMENT_SET_NO":999,"REV_AT_EPOCH":20854,"BSTAR":-0.00020982512,"MEAN_MOTION_DOT":-7.0e-7,"MEAN_MOTION_DDOT":0},{"OBJECT_NAME":"SL-14 R\/B","OBJECT_ID":"1989-086B","EPOCH":"2026-03-09T22:32:59.060544","MEAN_MOTION":13.16273102,"ECCENTRICITY":0.00168726,"INCLINATION":82.5583,"RA_OF_ASC_NODE":8.8179,"ARG_OF_PERICENTER":153.4465,"MEAN_ANOMALY":272.9532,"EPHEMERIS_TYPE":0,"CLASSIFICATION_TYPE":"U","NORAD_CAT_ID":20306,"ELEMENT_SET_NO":999,"REV_AT_EPOCH":74734,"BSTAR":-0.00036791413,"MEAN_MOTION_DOT":-1.28e-6,"MEAN_MOTION_DDOT":0}]
